{"type": "FeatureCollection", "features": [ {"type": "Feature", "properties": {"norad_id": 64901, "name": "CO3D 4", "group": "resource", "lat": 47.37179846870593, "lon": -114.44972989844062, "alt_km": 501.1073715989087, "timestamp": "2025-12-06T22:38:42.392993+00:00", "meta": {"OBJECT_NAME": "CO3D 4", "OBJECT_ID": "2025-156C", "EPOCH": "2025-12-06T14:10:03.184896", "MEAN_MOTION": 15.20208871, "ECCENTRICITY": 0.00010858, "INCLINATION": 97.4345, "RA_OF_ASC_NODE": 57.0463, "ARG_OF_PERICENTER": 228.0175, "MEAN_ANOMALY": 132.0968, "EPHEMERIS_TYPE": 0, "CLASSIFICATION_TYPE": "U", "NORAD_CAT_ID": 64901, "ELEMENT_SET_NO": 999, "REV_AT_EPOCH": 2027, "BSTAR": 0.00047619473, "MEAN_MOTION_DOT": 0.00010257, "MEAN_MOTION_DDOT": 0}, "tle": {"line1": "1 64901U 25156C   25340.59031464  .00010257  00000+0  47619-3 0  9999", "line2": "2 64901  97.4345  57.0463 0001085 228.0175 132.0968 15.20208871 20272"}}, "geometry": {"type": "Point", "coordinates": [-114.44972989844062, 47.37179846870593]}}, {"type": "Feature", "properties": {"norad_id": 64902, "name": "CO3D 2", "group": "resource", "lat": -45.196255185910616, "lon": 64.84654995742372, "alt_km": 512.4909216681599, "timestamp": "2025-12-06T22:38:42.393003+00:00", "meta": {"OBJECT_NAME": "CO3D 2", "OBJECT_ID": "2025-156D", "EPOCH": "2025-12-05T21:34:11.594784", "MEAN_MOTION": 15.20206227, "ECCENTRICITY": 8.478e-05, "INCLINATION": 97.4344, "RA_OF_ASC_NODE": 56.2618, "ARG_OF_PERICENTER": 104.2207, "MEAN_ANOMALY": 255.9122, "EPHEMERIS_TYPE": 0, "CLASSIFICATION_TYPE": "U", "NORAD_CAT_ID": 64902, "ELEMENT_SET_NO": 999, "REV_AT_EPOCH": 2016, "BSTAR": 2.7929626e-05, "MEAN_MOTION_DOT": 5.37e-06, "MEAN_MOTION_DDOT": 0}, "tle": {"line1": "1 64902U 25156D   25339.89874531  .00000537  00000+0  27930-4 0  9996", "line2": "2 64902  97.4344  56.2618 0000847 104.2207 255.9122 15.20206227 20169"}}, "geometry": {"type": "Point", "coordinates": [64.84654995742372, -45.196255185910616]}}, {"type": "Feature", "properties": {"norad_id": 64903, "name": "CO3D 1", "group": "resource", "lat": -46.00353496027354, "lon": 65.06510213831561, "alt_km": 512.6174026869612, "timestamp": "2025-12-06T22:38:42.393012+00:00", "meta": {"OBJECT_NAME": "CO3D 1", "OBJECT_ID": "2025-156E", "EPOCH": "2025-12-06T05:28:20.228160", "MEAN_MOTION": 15.20209887, "ECCENTRICITY": 0.0001033, "INCLINATION": 97.4344, "RA_OF_ASC_NODE": 56.5876, "ARG_OF_PERICENTER": 105.2581, "MEAN_ANOMALY": 254.8768, "EPHEMERIS_TYPE": 0, "CLASSIFICATION_TYPE": "U", "NORAD_CAT_ID": 64903, "ELEMENT_SET_NO": 999, "REV_AT_EPOCH": 2021, "BSTAR": 0.00023543491, "MEAN_MOTION_DOT": 5.034e-05, "MEAN_MOTION_DDOT": 0}, "tle": {"line1": "1 64903U 25156E   25340.22801190  .00005034  00000+0  23543-3 0  9999", "line2": "2 64903  97.4344  56.5876 0001033 105.2581 254.8768 15.20209887 20218"}}, "geometry": {"type": "Point", "coordinates": [65.06510213831561, -46.00353496027354]}}, {"type": "Feature", "properties": {"norad_id": 66514, "name": "SENTINEL-6B", "group": "resource", "lat": -13.485888541554461, "lon": 168.37997454783854, "alt_km": 1319.520459889388, "timestamp": "2025-12-06T22:38:42.393023+00:00", "meta": {"OBJECT_NAME": "SENTINEL-6B", "OBJECT_ID": "2025-264A", "EPOCH": "2025-12-05T07:31:22.416096", "MEAN_MOTION": 12.8587776, "ECCENTRICITY": 0.00115487, "INCLINATION": 66.0393, "RA_OF_ASC_NODE": 177.917, "ARG_OF_PERICENTER": 268.403, "MEAN_ANOMALY": 91.5665, "EPHEMERIS_TYPE": 0, "CLASSIFICATION_TYPE": "U", "NORAD_CAT_ID": 66514, "ELEMENT_SET_NO": 999, "REV_AT_EPOCH": 233, "BSTAR": 0.0002937849, "MEAN_MOTION_DOT": 1.1e-07, "MEAN_MOTION_DDOT": 0}, "tle": {"line1": "1 66514U 25264A   25339.31345389  .00000011  00000+0  29378-3 0  9992", "line2": "2 66514  66.0393 177.9170 0011548 268.4030  91.5665 12.85877760  2336"}}, "geometry": {"type": "Point", "coordinates": [168.37997454783854, -13.485888541554461]}}]}